{"fetched_at":"2026-03-29T16:36:15Z","count":15609,"tles":[{"name":"STARLINK-4171","line1":"1 52878U 22062BA  26087.75915991 -.00013919  00000+0 -85652-3 0  9994","line2":"2 52878  53.2183 288.5132 0001096  99.3974 260.7142 15.08907585208943","category":"Starlink"}]}