{
  "norad_id": 52878,
  "name": "STARLINK-4171",
  "history": [
    {
      "epoch": "2026-03-28T18:13:11.416224Z",
      "apogee_km": 540.295408478366,
      "perigee_km": 538.778224256961,
      "latitude_deg": -1.4428624334130015e-05,
      "longitude_deg": -170.95937635070652,
      "height_km": 540.5568890235321,
      "semi_major_axis_km": 6917.673816367664,
      "eccentricity": 0.00010966,
      "inclination_deg": 53.2183,
      "raan_deg": 288.5132,
      "arg_perigee_deg": 99.3974,
      "mean_anomaly_deg": 260.7142,
      "mean_motion_rev_day": 15.08907585
    }
  ]
}